[{"OBJECT_NAME":"STARLINK-4037","OBJECT_ID":"2022-053H","EPOCH":"2026-03-09T11:22:43.567104","MEAN_MOTION":15.08807028,"ECCENTRICITY":0.00016304,"INCLINATION":53.2175,"RA_OF_ASC_NODE":155.092,"ARG_OF_PERICENTER":112.4022,"MEAN_ANOMALY":247.7144,"EPHEMERIS_TYPE":0,"CLASSIFICATION_TYPE":"U","NORAD_CAT_ID":52663,"ELEMENT_SET_NO":999,"REV_AT_EPOCH":21101,"BSTAR":0.00034878923,"MEAN_MOTION_DOT":5.262e-5,"MEAN_MOTION_DDOT":0},{"OBJECT_NAME":"DELTA 1 DEB","OBJECT_ID":"1977-065BM","EPOCH":"2026-03-09T08:53:34.800288","MEAN_MOTION":14.77293363,"ECCENTRICITY":0.02802368,"INCLINATION":28.9467,"RA_OF_ASC_NODE":72.3418,"ARG_OF_PERICENTER":336.7461,"MEAN_ANOMALY":22.0666,"EPHEMERIS_TYPE":0,"CLASSIFICATION_TYPE":"U","NORAD_CAT_ID":10234,"ELEMENT_SET_NO":999,"REV_AT_EPOCH":46616,"BSTAR":0.0015812082,"MEAN_MOTION_DOT":0.00022515,"MEAN_MOTION_DDOT":0}]
